STARLINK-32209          
1 60590U 24150H   25123.84229902 -.00000402  00000+0 -14637-5 0  9994
2 60590  53.1601 306.1437 0001174  71.8258 288.2871 15.30185696 40606
STARLINK-32170          
1 60591U 24150J   25124.20580691 -.00000036  00000+0  10929-4 0  9992
2 60591  53.1602 304.8601 0001331  96.0668 264.0484 15.30192833 40530
STARLINK-31497          
1 60592U 24150K   25123.85601308 -.00000662  00000+0 -10245-4 0  9999
2 60592  53.1609 306.2269 0001058  63.2593 296.8516 15.30195879 40603
STARLINK-32161          
1 60593U 24150L   25123.84018290 -.00000049  00000+0  10472-4 0  9991
2 60593  53.1610 306.1302 0000991  85.3450 274.7664 15.30188549 40554
STARLINK-32210          
1 60594U 24150M   25123.89177385  .00001801  00000+0  72917-4 0  9996
2 60594  53.1613 305.7386 0001137  66.3121 293.7999 15.30199909 40613
STARLINK-32202          
1 60595U 24150N   25123.80441893 -.00000307  00000+0  17690-5 0  9995
2 60595  53.1605 306.6190 0001035  92.3331 267.7788 15.30190003 40597
STARLINK-31930          
1 60596U 24150P   25123.70216754 -.00001109  00000+0 -25358-4 0  9992
2 60596  53.1616 306.6888 0000846 112.0371 248.0720 15.30188713 40422
STARLINK-32162          
1 60597U 24150Q   25123.88240132 -.00001077  00000+0 -24249-4 0  9991
2 60597  53.1608 306.3942 0001048  93.8785 266.2336 15.30180137 40609
STARLINK-32208          
1 60598U 24150R   25123.88556312 -.00001249  00000+0 -30090-4 0  9994
2 60598  53.1606 306.4158 0000752  90.2238 269.8848 15.30186535 40608
STARLINK-32165          
1 60599U 24150S   25123.87607051 -.00000610  00000+0 -84782-5 0  9990
2 60599  53.1602 306.3546 0000968  71.2071 288.9035 15.30184694 40602
STARLINK-31923          
1 60600U 24150T   25124.19207870 -.00000302  00000+0  19240-5 0  9998
2 60600  53.1614 304.7738 0001130 124.0681 236.0427 15.30198557 40656
STARLINK-31988          
1 60601U 24150U   25123.85917992 -.00000186  00000+0  58382-5 0  9994
2 60601  53.1611 306.2485 0001078  83.3806 276.7318 15.30187303 40520
STARLINK-31983          
1 60602U 24150V   25123.84651529 -.00000032  00000+0  11038-4 0  9991
2 60602  53.1604 306.1697 0001052  79.9605 280.1514 15.30189387 40483
STARLINK-31874          
1 60603U 24150W   25123.85285259 -.00001203  00000+0 -28520-4 0  9992
2 60603  53.1605 306.2080 0001154  87.1904 272.9229 15.30182969 40603
