[
  {
    "OBJECT_NAME": "STARLINK-32209",
    "OBJECT_ID": "2024-150H",
    "EPOCH": "2025-05-03T20:12:54.635328",
    "MEAN_MOTION": 15.30185696,
    "ECCENTRICITY": 0.0001174,
    "INCLINATION": 53.1601,
    "RA_OF_ASC_NODE": 306.1437,
    "ARG_OF_PERICENTER": 71.8258,
    "MEAN_ANOMALY": 288.2871,
    "EPHEMERIS_TYPE": 0,
    "CLASSIFICATION_TYPE": "U",
    "NORAD_CAT_ID": 60590,
    "ELEMENT_SET_NO": 999,
    "REV_AT_EPOCH": 4060,
    "BSTAR": -1.4637e-06,
    "MEAN_MOTION_DOT": -4.02e-06,
    "MEAN_MOTION_DDOT": 0
  },
  {
    "OBJECT_NAME": "STARLINK-32170",
    "OBJECT_ID": "2024-150J",
    "EPOCH": "2025-05-04T04:56:21.717024",
    "MEAN_MOTION": 15.30192833,
    "ECCENTRICITY": 0.0001331,
    "INCLINATION": 53.1602,
    "RA_OF_ASC_NODE": 304.8601,
    "ARG_OF_PERICENTER": 96.0668,
    "MEAN_ANOMALY": 264.0484,
    "EPHEMERIS_TYPE": 0,
    "CLASSIFICATION_TYPE": "U",
    "NORAD_CAT_ID": 60591,
    "ELEMENT_SET_NO": 999,
    "REV_AT_EPOCH": 4053,
    "BSTAR": 1.0929e-05,
    "MEAN_MOTION_DOT": -3.6e-07,
    "MEAN_MOTION_DDOT": 0
  },
  {
    "OBJECT_NAME": "STARLINK-31497",
    "OBJECT_ID": "2024-150K",
    "EPOCH": "2025-05-03T20:32:39.530112",
    "MEAN_MOTION": 15.30195879,
    "ECCENTRICITY": 0.0001058,
    "INCLINATION": 53.1609,
    "RA_OF_ASC_NODE": 306.2269,
    "ARG_OF_PERICENTER": 63.2593,
    "MEAN_ANOMALY": 296.8516,
    "EPHEMERIS_TYPE": 0,
    "CLASSIFICATION_TYPE": "U",
    "NORAD_CAT_ID": 60592,
    "ELEMENT_SET_NO": 999,
    "REV_AT_EPOCH": 4060,
    "BSTAR": -1.0245e-05,
    "MEAN_MOTION_DOT": -6.62e-06,
    "MEAN_MOTION_DDOT": 0
  },
  {
    "OBJECT_NAME": "STARLINK-32161",
    "OBJECT_ID": "2024-150L",
    "EPOCH": "2025-05-03T20:09:51.802560",
    "MEAN_MOTION": 15.30188549,
    "ECCENTRICITY": 9.91e-05,
    "INCLINATION": 53.161,
    "RA_OF_ASC_NODE": 306.1302,
    "ARG_OF_PERICENTER": 85.345,
    "MEAN_ANOMALY": 274.7664,
    "EPHEMERIS_TYPE": 0,
    "CLASSIFICATION_TYPE": "U",
    "NORAD_CAT_ID": 60593,
    "ELEMENT_SET_NO": 999,
    "REV_AT_EPOCH": 4055,
    "BSTAR": 1.0472e-05,
    "MEAN_MOTION_DOT": -4.9e-07,
    "MEAN_MOTION_DDOT": 0
  },
  {
    "OBJECT_NAME": "STARLINK-32210",
    "OBJECT_ID": "2024-150M",
    "EPOCH": "2025-05-03T21:24:09.260640",
    "MEAN_MOTION": 15.30199909,
    "ECCENTRICITY": 0.0001137,
    "INCLINATION": 53.1613,
    "RA_OF_ASC_NODE": 305.7386,
    "ARG_OF_PERICENTER": 66.3121,
    "MEAN_ANOMALY": 293.7999,
    "EPHEMERIS_TYPE": 0,
    "CLASSIFICATION_TYPE": "U",
    "NORAD_CAT_ID": 60594,
    "ELEMENT_SET_NO": 999,
    "REV_AT_EPOCH": 4061,
    "BSTAR": 7.2917e-05,
    "MEAN_MOTION_DOT": 1.801e-05,
    "MEAN_MOTION_DDOT": 0
  },
  {
    "OBJECT_NAME": "STARLINK-32202",
    "OBJECT_ID": "2024-150N",
    "EPOCH": "2025-05-03T19:18:21.795552",
    "MEAN_MOTION": 15.30190003,
    "ECCENTRICITY": 0.0001035,
    "INCLINATION": 53.1605,
    "RA_OF_ASC_NODE": 306.619,
    "ARG_OF_PERICENTER": 92.3331,
    "MEAN_ANOMALY": 267.7788,
    "EPHEMERIS_TYPE": 0,
    "CLASSIFICATION_TYPE": "U",
    "NORAD_CAT_ID": 60595,
    "ELEMENT_SET_NO": 999,
    "REV_AT_EPOCH": 4059,
    "BSTAR": 1.769e-06,
    "MEAN_MOTION_DOT": -3.07e-06,
    "MEAN_MOTION_DDOT": 0
  },
  {
    "OBJECT_NAME": "STARLINK-31930",
    "OBJECT_ID": "2024-150P",
    "EPOCH": "2025-05-03T16:51:07.275456",
    "MEAN_MOTION": 15.30188713,
    "ECCENTRICITY": 8.46e-05,
    "INCLINATION": 53.1616,
    "RA_OF_ASC_NODE": 306.6888,
    "ARG_OF_PERICENTER": 112.0371,
    "MEAN_ANOMALY": 248.072,
    "EPHEMERIS_TYPE": 0,
    "CLASSIFICATION_TYPE": "U",
    "NORAD_CAT_ID": 60596,
    "ELEMENT_SET_NO": 999,
    "REV_AT_EPOCH": 4042,
    "BSTAR": -2.5358e-05,
    "MEAN_MOTION_DOT": -1.109e-05,
    "MEAN_MOTION_DDOT": 0
  },
  {
    "OBJECT_NAME": "STARLINK-32162",
    "OBJECT_ID": "2024-150Q",
    "EPOCH": "2025-05-03T21:10:39.474048",
    "MEAN_MOTION": 15.30180137,
    "ECCENTRICITY": 0.0001048,
    "INCLINATION": 53.1608,
    "RA_OF_ASC_NODE": 306.3942,
    "ARG_OF_PERICENTER": 93.8785,
    "MEAN_ANOMALY": 266.2336,
    "EPHEMERIS_TYPE": 0,
    "CLASSIFICATION_TYPE": "U",
    "NORAD_CAT_ID": 60597,
    "ELEMENT_SET_NO": 999,
    "REV_AT_EPOCH": 4060,
    "BSTAR": -2.4249e-05,
    "MEAN_MOTION_DOT": -1.077e-05,
    "MEAN_MOTION_DDOT": 0
  },
  {
    "OBJECT_NAME": "STARLINK-32208",
    "OBJECT_ID": "2024-150R",
    "EPOCH": "2025-05-03T21:15:12.653568",
    "MEAN_MOTION": 15.30186535,
    "ECCENTRICITY": 7.52e-05,
    "INCLINATION": 53.1606,
    "RA_OF_ASC_NODE": 306.4158,
    "ARG_OF_PERICENTER": 90.2238,
    "MEAN_ANOMALY": 269.8848,
    "EPHEMERIS_TYPE": 0,
    "CLASSIFICATION_TYPE": "U",
    "NORAD_CAT_ID": 60598,
    "ELEMENT_SET_NO": 999,
    "REV_AT_EPOCH": 4060,
    "BSTAR": -3.009e-05,
    "MEAN_MOTION_DOT": -1.249e-05,
    "MEAN_MOTION_DDOT": 0
  },
  {
    "OBJECT_NAME": "STARLINK-32165",
    "OBJECT_ID": "2024-150S",
    "EPOCH": "2025-05-03T21:01:32.492064",
    "MEAN_MOTION": 15.30184694,
    "ECCENTRICITY": 9.68e-05,
    "INCLINATION": 53.1602,
    "RA_OF_ASC_NODE": 306.3546,
    "ARG_OF_PERICENTER": 71.2071,
    "MEAN_ANOMALY": 288.9035,
    "EPHEMERIS_TYPE": 0,
    "CLASSIFICATION_TYPE": "U",
    "NORAD_CAT_ID": 60599,
    "ELEMENT_SET_NO": 999,
    "REV_AT_EPOCH": 4060,
    "BSTAR": -8.4782e-06,
    "MEAN_MOTION_DOT": -6.1e-06,
    "MEAN_MOTION_DDOT": 0
  },
  {
    "OBJECT_NAME": "STARLINK-31923",
    "OBJECT_ID": "2024-150T",
    "EPOCH": "2025-05-04T04:36:35.599680",
    "MEAN_MOTION": 15.30198557,
    "ECCENTRICITY": 0.000113,
    "INCLINATION": 53.1614,
    "RA_OF_ASC_NODE": 304.7738,
    "ARG_OF_PERICENTER": 124.0681,
    "MEAN_ANOMALY": 236.0427,
    "EPHEMERIS_TYPE": 0,
    "CLASSIFICATION_TYPE": "U",
    "NORAD_CAT_ID": 60600,
    "ELEMENT_SET_NO": 999,
    "REV_AT_EPOCH": 4065,
    "BSTAR": 1.924e-06,
    "MEAN_MOTION_DOT": -3.02e-06,
    "MEAN_MOTION_DDOT": 0
  },
  {
    "OBJECT_NAME": "STARLINK-31988",
    "OBJECT_ID": "2024-150U",
    "EPOCH": "2025-05-03T20:37:13.145088",
    "MEAN_MOTION": 15.30187303,
    "ECCENTRICITY": 0.0001078,
    "INCLINATION": 53.1611,
    "RA_OF_ASC_NODE": 306.2485,
    "ARG_OF_PERICENTER": 83.3806,
    "MEAN_ANOMALY": 276.7318,
    "EPHEMERIS_TYPE": 0,
    "CLASSIFICATION_TYPE": "U",
    "NORAD_CAT_ID": 60601,
    "ELEMENT_SET_NO": 999,
    "REV_AT_EPOCH": 4052,
    "BSTAR": 5.8382e-06,
    "MEAN_MOTION_DOT": -1.86e-06,
    "MEAN_MOTION_DDOT": 0
  },
  {
    "OBJECT_NAME": "STARLINK-31983",
    "OBJECT_ID": "2024-150V",
    "EPOCH": "2025-05-03T20:18:58.921056",
    "MEAN_MOTION": 15.30189387,
    "ECCENTRICITY": 0.0001052,
    "INCLINATION": 53.1604,
    "RA_OF_ASC_NODE": 306.1697,
    "ARG_OF_PERICENTER": 79.9605,
    "MEAN_ANOMALY": 280.1514,
    "EPHEMERIS_TYPE": 0,
    "CLASSIFICATION_TYPE": "U",
    "NORAD_CAT_ID": 60602,
    "ELEMENT_SET_NO": 999,
    "REV_AT_EPOCH": 4048,
    "BSTAR": 1.1038e-05,
    "MEAN_MOTION_DOT": -3.2e-07,
    "MEAN_MOTION_DDOT": 0
  },
  {
    "OBJECT_NAME": "STARLINK-31874",
    "OBJECT_ID": "2024-150W",
    "EPOCH": "2025-05-03T20:28:06.463776",
    "MEAN_MOTION": 15.30182969,
    "ECCENTRICITY": 0.0001154,
    "INCLINATION": 53.1605,
    "RA_OF_ASC_NODE": 306.208,
    "ARG_OF_PERICENTER": 87.1904,
    "MEAN_ANOMALY": 272.9229,
    "EPHEMERIS_TYPE": 0,
    "CLASSIFICATION_TYPE": "U",
    "NORAD_CAT_ID": 60603,
    "ELEMENT_SET_NO": 999,
    "REV_AT_EPOCH": 4060,
    "BSTAR": -2.852e-05,
    "MEAN_MOTION_DOT": -1.203e-05,
    "MEAN_MOTION_DDOT": 0
  }
]